[{"OBJECT_NAME":"SITRO-AIS 18","OBJECT_ID":"2024-199BH","EPOCH":"2026-03-09T22:56:51.354816","MEAN_MOTION":14.97350577,"ECCENTRICITY":0.00069154,"INCLINATION":97.331,"RA_OF_ASC_NODE":274.6581,"ARG_OF_PERICENTER":53.7115,"MEAN_ANOMALY":306.4746,"EPHEMERIS_TYPE":0,"CLASSIFICATION_TYPE":"U","NORAD_CAT_ID":61790,"ELEMENT_SET_NO":999,"REV_AT_EPOCH":11718,"BSTAR":0.00032194999,"MEAN_MOTION_DOT":3.687e-5,"MEAN_MOTION_DDOT":0},{"OBJECT_NAME":"STARLINK-33986","OBJECT_ID":"2025-094G","EPOCH":"2026-03-09T21:19:41.475072","MEAN_MOTION":14.98343873,"ECCENTRICITY":0.0002863,"INCLINATION":70.0015,"RA_OF_ASC_NODE":233.9223,"ARG_OF_PERICENTER":269.4405,"MEAN_ANOMALY":90.6427,"EPHEMERIS_TYPE":0,"CLASSIFICATION_TYPE":"U","NORAD_CAT_ID":63870,"ELEMENT_SET_NO":999,"REV_AT_EPOCH":4723,"BSTAR":0.00030604895,"MEAN_MOTION_DOT":3.562e-5,"MEAN_MOTION_DDOT":0}]
